OBJECT_NAME,OBJECT_ID,EPOCH,MEAN_MOTION,ECCENTRICITY,INCLINATION,RA_OF_ASC_NODE,ARG_OF_PERICENTER,MEAN_ANOMALY,EPHEMERIS_TYPE,CLASSIFICATION_TYPE,NORAD_CAT_ID,ELEMENT_SET_NO,REV_AT_EPOCH,BSTAR,MEAN_MOTION_DOT,MEAN_MOTION_DDOT
STARLINK-3881,2022-049X,2026-05-26T04:57:10.008576,15.08847604,.00018955,53.2108,71.1320,73.4453,286.6747,0,U,52472,999,22395,-.10466474E-3,-.1954E-4,0
STARLINK-3879,2022-049Y,2026-05-26T01:56:59.758944,15.08843441,.00016018,53.2113,71.6934,89.0189,271.0987,0,U,52473,999,22393,-.31150508E-4,-.784E-5,0
STARLINK-3882,2022-049AA,2026-05-26T02:18:14.114016,15.08843552,.00018088,53.2123,71.8511,82.2282,277.8915,0,U,52475,999,22393,-.14801338E-4,-.524E-5,0
STARLINK-3835,2022-049AB,2026-05-26T04:17:30.418656,15.08875728,.00015682,53.2107,61.4988,82.6729,277.4442,0,U,52476,999,22532,-.50929418E-3,-.8392E-4,0
STARLINK-3860,2022-049AC,2026-05-26T00:44:07.855008,15.08842627,.00011085,53.2115,61.9213,99.2484,260.8633,0,U,52477,999,22530,.462101E-5,-.214E-5,0
STARLINK-3825,2022-049AD,2026-05-26T04:46:34.483872,15.08837361,.00013535,53.2145,71.1639,90.7694,269.3453,0,U,52478,999,22519,.6157776E-5,-.19E-5,0
STARLINK-3878,2022-049AE,2026-05-26T03:33:42.977376,15.08831957,.00013468,53.2106,61.3936,88.8053,271.3093,0,U,52479,999,22532,.71959966E-4,.857E-5,0
STARLINK-3839,2022-049AF,2026-05-26T04:41:17.844288,15.08827935,.00014939,53.2128,71.1797,93.5368,266.5795,0,U,52480,999,22395,-.58894452E-4,-.1225E-4,0
STARLINK-3813,2022-049AH,2026-05-26T03:23:06.545472,15.08843144,.00015839,53.2106,61.4217,67.5094,292.6066,0,U,52482,999,22408,.71771901E-4,.855E-5,0
STARLINK-3875,2022-049AJ,2026-05-26T02:03:38.965824,15.08826901,.00014796,53.2106,61.6722,82.8861,277.2299,0,U,52483,999,22531,-.6767439E-5,-.396E-5,0
STARLINK-3887,2022-049AK,2026-05-26T04:35:58.379424,15.08839973,.00011804,53.2125,71.1974,91.6736,268.4391,0,U,52484,999,22395,.55546974E-4,.596E-5,0
STARLINK-3913,2022-049AL,2026-05-26T03:28:25.983552,15.08837410,.00012406,53.2095,61.4096,83.9453,276.1680,0,U,52485,999,22408,.10407598E-3,.1369E-4,0
STARLINK-3918,2022-049AM,2026-05-26T04:25:22.519488,15.08840063,.00013467,53.2128,71.2315,89.4801,270.6345,0,U,52486,999,22395,.53234226E-4,.559E-5,0
STARLINK-3902,2022-049AN,2026-05-26T02:08:56.436576,15.08845520,.00011033,53.2097,61.7635,111.1248,248.9862,0,U,52487,999,22531,.31351851E-4,.211E-5,0
STARLINK-3892,2022-049AP,2026-05-26T04:20:04.941600,15.08840372,.00014563,53.2111,71.2489,74.4109,285.7044,0,U,52488,999,22395,-.3635283E-5,-.346E-5,0
STARLINK-3923,2022-049AQ,2026-05-26T04:30:40.560480,15.08841664,.00015067,53.2110,71.2184,58.0383,302.0756,0,U,52489,999,22395,.12978333E-3,.1778E-4,0
STARLINK-3914,2022-049AR,2026-05-26T03:07:13.041120,15.08849864,.00013886,53.2092,61.4768,106.6797,253.4347,0,U,52490,999,22408,-.22739244E-3,-.3906E-4,0
STARLINK-3908,2022-049AS,2026-05-26T03:17:48.479424,15.08850487,.00015875,53.2098,61.4439,90.8353,269.2821,0,U,52491,999,22408,-.19638117E-4,-.601E-5,0
STARLINK-3916,2022-049AT,2026-05-26T01:21:13.893984,15.08836905,.00016816,53.2110,61.8057,82.6633,277.4550,0,U,52492,999,22407,.34243907E-4,.257E-5,0
STARLINK-3883,2022-049AU,2026-05-26T01:37:07.555584,15.08844819,.00013358,53.2108,61.7555,92.6919,267.4226,0,U,52493,999,22407,-.7585724E-4,-.1495E-4,0
STARLINK-3857,2022-049AV,2026-05-26T01:05:19.656960,15.08830861,.00014172,53.2114,61.8528,87.1537,272.9617,0,U,52494,999,22407,.79562175E-4,.978E-5,0
STARLINK-3871,2022-049AX,2026-05-26T06:42:29.547360,15.08838919,.00011992,53.2099,55.8057,121.4352,238.6758,0,U,52496,999,22417,-.17836721E-4,-.572E-5,0
STARLINK-3884,2022-049AY,2026-05-26T04:26:42.009216,15.08837727,.00013944,53.2115,61.2258,84.1972,275.9179,0,U,52497,999,22409,.19575007E-4,.24E-6,0
STARLINK-3925,2022-049AZ,2026-05-25T23:04:46.531488,15.08838747,.00016708,53.2103,52.2307,89.7227,270.3956,0,U,52498,999,22419,.3398654E-5,-.234E-5,0
STARLINK-3894,2022-049BA,2026-05-26T08:00:01.999872,15.37597618,.00013513,53.2307,58.6974,83.5981,264.5576,0,U,52499,999,581,.24661055E-1,.1001596E-1,0
STARLINK-3866,2022-049BB,2026-05-26T03:45:38.293344,15.08805901,.00014198,53.2120,51.3538,99.7016,260.4136,0,U,52500,999,22422,.43135818E-3,.6577E-4,0
STARLINK-3907,2022-049BC,2026-05-26T03:49:34.415904,15.08838824,.00017514,53.2120,61.1422,65.0758,295.0416,0,U,52501,999,22409,.42827486E-4,.394E-5,0
STARLINK-3912,2022-049BD,2026-05-26T00:29:33.658080,15.08856988,.00020826,53.2094,51.9935,74.0478,286.0744,0,U,52502,999,22420,-.21146301E-3,-.3654E-4,0
STARLINK-3861,2022-049BE,2026-05-26T03:24:24.889536,15.08840385,.00016297,53.2111,51.3060,90.8771,269.2408,0,U,52503,999,22422,-.11018811E-4,-.463E-5,0
STARLINK-3958,2022-051C,2026-05-26T06:39:11.052000,15.08839645,.00011762,53.2080,140.8145,66.0423,294.0693,0,U,52535,999,22315,-.190386E-4,-.591E-5,0
