STARLINK-3881           
1 52472U 22049X   26146.20636584 -.00001954  00000+0 -10466-3 0  9990
2 52472  53.2108  71.1320 0001895  73.4453 286.6747 15.08847604223958
STARLINK-3879           
1 52473U 22049Y   26146.08124721 -.00000784  00000+0 -31151-4 0  9997
2 52473  53.2113  71.6934 0001601  89.0189 271.0987 15.08843441223932
STARLINK-3882           
1 52475U 22049AA  26146.09599669 -.00000524  00000+0 -14801-4 0  9992
2 52475  53.2123  71.8511 0001808  82.2282 277.8915 15.08843552223934
STARLINK-3835           
1 52476U 22049AB  26146.17882429 -.00008392  00000+0 -50929-3 0  9992
2 52476  53.2107  61.4988 0001568  82.6729 277.4442 15.08875728225329
STARLINK-3860           
1 52477U 22049AC  26146.03064647 -.00000214  00000+0  46210-5 0  9996
2 52477  53.2115  61.9213 0001108  99.2484 260.8633 15.08842627225305
STARLINK-3825           
1 52478U 22049AD  26146.19901023 -.00000190  00000+0  61578-5 0  9999
2 52478  53.2145  71.1639 0001353  90.7694 269.3453 15.08837361225195
STARLINK-3878           
1 52479U 22049AE  26146.14841409  .00000857  00000+0  71960-4 0  9990
2 52479  53.2106  61.3936 0001346  88.8053 271.3093 15.08831957225326
STARLINK-3839           
1 52480U 22049AF  26146.19534542 -.00001225  00000+0 -58894-4 0  9997
2 52480  53.2128  71.1797 0001493  93.5368 266.5795 15.08827935223954
STARLINK-3813           
1 52482U 22049AH  26146.14104798  .00000855  00000+0  71772-4 0  9996
2 52482  53.2106  61.4217 0001583  67.5094 292.6066 15.08843144224084
STARLINK-3875           
1 52483U 22049AJ  26146.08586766 -.00000396  00000+0 -67674-5 0  9998
2 52483  53.2106  61.6722 0001479  82.8861 277.2299 15.08826901225310
STARLINK-3887           
1 52484U 22049AK  26146.19164791  .00000596  00000+0  55547-4 0  9996
2 52484  53.2125  71.1974 0001180  91.6736 268.4391 15.08839973223951
STARLINK-3913           
1 52485U 22049AL  26146.14474518  .00001369  00000+0  10408-3 0  9998
2 52485  53.2095  61.4096 0001240  83.9453 276.1680 15.08837410224088
STARLINK-3918           
1 52486U 22049AM  26146.18428842  .00000559  00000+0  53234-4 0  9997
2 52486  53.2128  71.2315 0001346  89.4801 270.6345 15.08840063223954
STARLINK-3902           
1 52487U 22049AN  26146.08954209  .00000211  00000+0  31352-4 0  9990
2 52487  53.2097  61.7635 0001103 111.1248 248.9862 15.08845520225315
STARLINK-3892           
1 52488U 22049AP  26146.18061275 -.00000346  00000+0 -36353-5 0  9992
2 52488  53.2111  71.2489 0001456  74.4109 285.7044 15.08840372223953
STARLINK-3923           
1 52489U 22049AQ  26146.18796945  .00001778  00000+0  12978-3 0  9995
2 52489  53.2110  71.2184 0001506  58.0383 302.0756 15.08841664223951
STARLINK-3914           
1 52490U 22049AR  26146.13001205 -.00003906  00000+0 -22739-3 0  9993
2 52490  53.2092  61.4768 0001388 106.6797 253.4347 15.08849864224088
STARLINK-3908           
1 52491U 22049AS  26146.13736666 -.00000601  00000+0 -19638-4 0  9994
2 52491  53.2098  61.4439 0001587  90.8353 269.2821 15.08850487224088
STARLINK-3916           
1 52492U 22049AT  26146.05641081  .00000257  00000+0  34244-4 0  9997
2 52492  53.2110  61.8057 0001681  82.6633 277.4550 15.08836905224077
STARLINK-3883           
1 52493U 22049AU  26146.06744856 -.00001495  00000+0 -75857-4 0  9995
2 52493  53.2108  61.7555 0001335  92.6919 267.4226 15.08844819224073
STARLINK-3857           
1 52494U 22049AV  26146.04536640  .00000978  00000+0  79562-4 0  9994
2 52494  53.2114  61.8528 0001417  87.1537 272.9617 15.08830861224075
STARLINK-3871           
1 52496U 22049AX  26146.27950865 -.00000572  00000+0 -17837-4 0  9999
2 52496  53.2099  55.8057 0001199 121.4352 238.6758 15.08838919224171
STARLINK-3884           
1 52497U 22049AY  26146.18520844  .00000024  00000+0  19575-4 0  9991
2 52497  53.2115  61.2258 0001394  84.1972 275.9179 15.08837727224093
STARLINK-3925           
1 52498U 22049AZ  26145.96164967 -.00000234  00000+0  33987-5 0  9995
2 52498  53.2103  52.2307 0001670  89.7227 270.3956 15.08838747224193
STARLINK-3894           
1 52499U 22049BA  26146.33335648  .01001596  00000+0  24661-1 0  9991
2 52499  53.2307  58.6974 0001351  83.5981 264.5576 15.37597618  5815
STARLINK-3866           
1 52500U 22049BB  26146.15669321  .00006577  00000+0  43136-3 0  9995
2 52500  53.2120  51.3538 0001419  99.7016 260.4136 15.08805901224220
STARLINK-3907           
1 52501U 22049BC  26146.15942611  .00000394  00000+0  42827-4 0  9990
2 52501  53.2120  61.1422 0001751  65.0758 295.0416 15.08838824224090
STARLINK-3912           
1 52502U 22049BD  26146.02052845 -.00003654  00000+0 -21146-3 0  9992
2 52502  53.2094  51.9935 0002082  74.0478 286.0744 15.08856988224202
STARLINK-3861           
1 52503U 22049BE  26146.14195474 -.00000463  00000+0 -11019-4 0  9996
2 52503  53.2111  51.3060 0001629  90.8771 269.2408 15.08840385224220
STARLINK-3958           
1 52535U 22051C   26146.27721125 -.00000591  00000+0 -19039-4 0  9998
2 52535  53.2080 140.8145 0001176  66.0423 294.0693 15.08839645223154
